0 SL-16 DEB
1 22392U 92093CH  13281.72511889  .00000994  00000-0  17898-3 0  4710
2 22392 070.8961 025.5379 0112999 062.2619 050.6549 14.65321483102086
0 SL-16 DEB
1 22392U 92093CH  13283.70445916  .00001102  00000-0  19701-3 0  4725
2 22392 070.8962 021.0031 0113032 058.9639 052.0781 14.65333154102370
0 SL-16 DEB
1 22392U 92093CH  13286.49457410  .00001092  00000-0  19533-3 0  4749
2 22392 070.8962 014.6107 0113138 054.3278 010.5909 14.65338993102780
0 SL-16 DEB
1 22392U 92093CH  13287.59426236  .00001501  00000-0  26408-3 0  4758
2 22392 070.8960 012.0912 0113187 052.4934 051.7273 14.65342906102944
0 SL-16 DEB
1 22392U 92093CH  13288.62574353  .00001642  00000-0  28786-3 0  4765
2 22392 070.8958 009.7280 0113208 050.7724 093.0760 14.65346846103098
0 SL-16 DEB
1 22392U 92093CH  13289.65131410  .00001521  00000-0  26744-3 0  4771
2 22392 070.8956 007.3784 0113249 049.0626 103.2525 14.65351900103243
0 SL-16 DEB
1 22392U 92093CH  13291.20332258  .00001422  00000-0  25078-3 0  4788
2 22392 070.8954 003.8225 0113321 046.4857 010.5596 14.65356590103473
0 SL-16 DEB
1 22392U 92093CH  13292.50903089  .00001528  00000-0  26845-3 0  4799
2 22392 070.8953 000.8309 0113377 044.3102 058.5915 14.65359216103669
0 SL-16 DEB
1 22392U 92093CH  13293.87582356  .00001630  00000-0  28555-3 0  4806
2 22392 070.8951 357.6992 0113471 042.0559 068.8550 14.65362654103865
0 SL-16 DEB
1 22392U 92093CH  13295.51362947  .00001700  00000-0  29725-3 0  4810
2 22392 070.8950 353.9464 0113567 039.3414 068.8352 14.65368390104103
